# From MPC110083
C/2017 M3 (PANSTARRS),e,77.5540,7.0152,110.3401,167.0376,0.0004565,0.97211859,0.0000,04/28.1235/2017,2000,g 10.5,4.0
# From MPEC 2020-UR0
C/2017 M4 (ATLAS),h,01/17.9045/2019,105.6472,65.8750,167.5865,1.001263,3.252641,2000,6.0,4.0
# From MPC118841
C/2017 M5 (TOTAS),h,06/04.1323/2018,15.8781,216.2813,92.7553,1.005351,5.993716,2000,6.5,4.0
# From MPC114599
C/2017 O1 (ASASSN),e,39.9030,25.7606,20.8448,357.0718,0.0001461,0.99581400,0.0000,10/14.8709/2017,2000,g 11.0,4.0
# From MPC114599
P/2017 P1 (PANSTARRS),e,7.6967,221.3997,122.2859,7.894466,0.0444345,0.31069714,39.7668,11/30.0/2020,2000,g 10.0,4.0
# From MPC114599
C/2017 P2 (PANSTARRS),e,50.0543,165.4870,132.3620,2125,0.0000101,0.99883991,0.0000,12/06.6602/2017,2000,g 10.0,4.0
# From MPC114599
P/2017 R1 (PANSTARRS),e,2.5740,143.6179,178.5799,4.135093,0.1172131,0.19564507,155.8920,11/30.0/2020,2000,g 13.5,4.0
# From MPC108595
C/2017 S2 (PANSTARRS),e,12.6775,62.3998,305.9604,20.53940,0.0105882,0.82417198,12.5816,11/30.0/2020,2000,g 13.0,4.0
# From MPC114599
C/2017 S3 (PANSTARRS),h,08/16.0253/2018,99.1410,171.1944,255.8394,1.000054,0.208081,2000,11.0,4.0
# From MPC114599
P/2017 S5 (ATLAS),e,11.8510,252.3757,99.8558,3.168283,0.1747705,0.31410919,213.2659,11/30.0/2020,2000,g 14.0,4.0
# From MPC109591
C/2017 S6 (Catalina),h,02/26.4683/2018,152.8674,131.0410,134.8128,1.000655,1.543690,2000,12.5,4.0
# From MPC114599
C/2017 S7 (Lemmon),h,05/25.2802/2017,124.2297,262.7814,187.5867,1.000460,7.607720,2000,7.0,4.0
# From MPC114599
P/2017 S8 (PANSTARRS),e,29.8192,191.6482,254.7498,2.779459,0.2126981,0.39213442,220.6988,11/30.0/2020,2000,g 16.0,4.0
# From MPC107050
P/2017 S9 (PANSTARRS),e,14.1439,146.2214,237.7139,3.153734,0.1759813,0.30511032,215.7066,11/30.0/2020,2000,g 17.0,4.0
# From MPC114600
C/2017 T1 (Heinze),e,96.8421,102.3309,96.9332,29944,0.0000002,0.99998055,0.0000,02/21.2533/2018,2000,g 14.5,4.0
# From MPEC 2020-UR0
C/2017 T2 (PANSTARRS),e,57.2294,64.3776,92.9974,3753,0.0000043,0.99956963,0.0000,05/04.9548/2020,2000,g  5.0,4.0
# From MPEC 2020-U96
C/2017 T2 (PANSTARRS),e,57.2293,64.3776,92.9975,3744,0.0000043,0.99956859,0.0000,05/04.9549/2020,2000,g  5.0,4.0
# From MPC114600
C/2017 T3 (ATLAS),e,88.0622,230.0860,246.8314,1248,0.0000224,0.99933877,0.0000,07/18.9346/2018,2000,g 10.0,4.0
# From MPC115882
P/2017 TW13 (Lemmon),e,44.8494,322.2941,120.0091,7.145287,0.0516029,0.70941215,46.0896,11/30.0/2020,2000,g 15.0,2.0
# From MPC114600
C/2017 U2 (Fuls),e,95.3899,149.7094,147.7893,3544,0.0000047,0.99810814,0.0000,08/28.2541/2017,2000,g  9.0,4.0
# From MPC114600
P/2017 U3 (PANSTARRS),e,15.9154,165.1075,296.9632,4.930696,0.0900206,0.09889640,53.3641,11/30.0/2020,2000,g 11.0,4.0
# From MPC114600
C/2017 U4 (PANSTARRS),h,09/23.6613/2018,158.2178,245.9455,159.0472,1.002694,7.721592,2000,7.0,4.0
# From MPC114600
C/2017 U5 (PANSTARRS),e,18.9720,163.0851,262.0389,16.87552,0.0142173,0.74392055,15.3201,11/30.0/2020,2000,g 12.0,4.0
# From MPEC 2020-U96
C/2017 U7 (PANSTARRS),h,09/14.0269/2019,142.5931,276.2448,326.2945,1.001136,6.422145,2000,8.3,2.0
# From MPC114600
C/2017 W2 (Leonard),e,98.1990,312.8408,169.0565,13.66737,0.0195064,0.71075935,21.9375,11/30.0/2020,2000,g 11.0,4.0
# From MPC114601
P/2017 W3 (Gibbs),e,18.1706,210.3188,327.7504,7.843638,0.0448671,0.50785361,45.0779,11/30.0/2020,2000,g 10.5,4.0
# From MPC115883
C/2017 X1 (PANSTARRS),e,31.3036,251.1298,283.2880,31.37337,0.0056087,0.85118101,5.0401,11/30.0/2020,2000,g 10.0,4.0
# From MPC117069
C/2017 Y1 (PANSTARRS),e,55.2665,307.5304,134.3235,1853,0.0000124,0.99799629,0.0000,08/31.1453/2017,2000,g 11.5,4.0
# From MPEC 2020-UR0
C/2017 Y2 (PANSTARRS),h,11/04.6412/2020,128.4147,65.9925,147.8750,1.000952,4.632055,2000,15.0,4.0
# From MPC111770
P/2017 Y3 (Leonard),e,27.5628,153.8509,67.5950,9.848073,0.0318917,0.87018114,32.6322,11/30.0/2020,2000,g 16.5,4.0
# From MPC114601
C/2018 A1 (PANSTARRS),e,53.6040,336.6480,96.2796,25.10614,0.0078349,0.90379301,8.9053,11/30.0/2020,2000,g 12.5,4.0
# From MPEC 2020-UR0
C/2018 A3 (ATLAS),e,139.5456,194.2940,86.3949,471.0300,0.0000964,0.99304582,0.0000,01/12.6362/2019,2000,g  8.5,4.0
# From MPC114601
C/2018 A4 (PANSTARRS),e,3.1483,97.6303,356.0505,12.20708,0.0231093,0.80336778,21.4108,11/30.0/2020,2000,g 14.0,4.0
# From MPC109147
P/2018 A5 (PANSTARRS),e,23.5800,87.8255,359.5820,5.636074,0.0736612,0.52225161,85.7354,11/30.0/2020,2000,g 15.0,4.0
# From MPEC 2020-UR0
C/2018 A6 (Gibbs),e,76.9758,340.3778,264.5587,15.32734,0.0164249,0.80304670,8.2901,11/30.0/2020,2000,g  9.0,4.0
# From MPC118841
C/2018 B1 (Lemmon),h,03/29.5751/2018,162.4201,133.1907,68.3096,1.001111,5.115825,2000,9.0,4.0
# From MPC114601
P/2018 C1 (Lemmon-Read),e,5.1239,270.3867,235.6584,5.653790,0.0733153,0.53354600,73.8732,11/30.0/2020,2000,g 13.5,4.0
# From MPC114601
C/2018 C2 (Lemmon),h,06/01.7788/2018,34.4592,91.1453,134.1131,1.000813,1.957876,2000,13.0,4.0
# From MPEC 2020-AA5
C/2018 DO4 (Lemmon),e,160.4742,251.1397,175.9874,25.74973,0.0075430,0.90653176,3.5427,11/30.0/2020,2000,g 11.0,4.0
# From MPC114602
C/2018 E1 (ATLAS),e,72.5123,146.8610,299.4065,53.97196,0.0024857,0.94992636,2.3806,11/30.0/2020,2000,g 10.5,4.0
# From MPC114602
C/2018 E2 (Barros),e,97.7139,67.1968,277.4711,3954,0.0000040,0.99900851,0.0000,12/23.9948/2017,2000,g 10.5,4.0
# From MPC114602
C/2018 EN4 (NEOWISE),e,81.6343,136.1448,35.0073,18.23287,0.0126596,0.92047085,11.4816,11/30.0/2020,2000,g 15.0,4.0
# From MPC114602
C/2018 EF9 (Lemmon),e,84.6450,172.5681,72.6202,560.2738,0.0000743,0.99722007,0.0000,05/22.8578/2018,2000,g 18.0,2.0
# From MPC115883
C/2018 F1 (Grauer),e,46.0767,177.2759,71.6358,287.8879,0.0002018,0.98959986,0.0000,12/13.8362/2018,2000,g 11.5,4.0
# From MPC110084
C/2018 F3 (Johnson),p,08/15.2314/2017,105.5348,293.0113,2.483172,173.0311,2000,13.0,4.0
# From MPC119996
C/2018 F4 (PANSTARRS),h,12/04.1452/2019,78.0948,26.5125,263.2271,1.001367,3.440189,2000,11.9,2.0
# From MPEC 2020-UR0
C/2018 F4-A (PANSTARRS),h,12/04.2247/2019,78.1213,26.4918,263.2729,1.001977,3.442455,2000,11.0,6.0
# From MPC xxxxx
C/2018 F4-B (PANSTARRS),h,12/04.0332/2019,78.1008,26.5089,263.1979,1.001679,3.439745,2000,11.2,6.0
# From MPC114602
P/2018 H2 (PANSTARRS),e,7.3881,68.4109,119.9850,4.393888,0.1070115,0.53997255,111.5438,11/30.0/2020,2000,g 16.6,2.0
# From MPC114602
C/2018 K1 (Weiland),e,164.1959,260.0353,325.0628,29.94223,0.0060156,0.93716149,5.8244,11/30.0/2020,2000,g 14.9,4.0
# From MPC118094
C/2018 KJ3 (Lemmon),e,136.7088,91.5990,217.6573,809.6995,0.0000428,0.99551780,0.0000,09/09.6606/2019,2000,g 12.2,2.0
# From MPC114602
P/2018 L1 (PANSTARRS),e,10.5931,268.6303,17.9746,3.650469,0.1413127,0.48291266,105.7559,11/30.0/2020,2000,g 15.0,4.0
# From MPC118841
C/2018 L2 (ATLAS),e,67.3939,243.0238,56.2695,258.3485,0.0002374,0.99337086,0.0000,12/02.6750/2018,2000,g 10.0,4.0
# From MPC114603
P/2018 L4 (PANSTARRS),e,26.6243,145.1590,140.5509,4.940073,0.0897644,0.66020669,76.4892,11/30.0/2020,2000,g 17.5,4.0
# From MPC119996
P/2018 L5 (Leonard),e,2.2083,219.1320,93.7884,3.627654,0.1426478,0.36478313,134.0832,11/30.0/2020,2000,g 14.5,4.0
# From MPC117070
C/2018 M1 (Catalina),e,37.2875,339.4197,14.1595,21.34486,0.0099946,0.93897679,8.7327,11/30.0/2020,2000,g 15.5,4.0
# From MPC112393
C/2018 N1 (NEOWISE),e,159.4447,292.4442,354.6154,346.6201,0.0001527,0.99622194,0.0000,08/01.9282/2018,2000,g 15.5,4.0
# From MPEC 2020-UR0
C/2018 N2 (ASASSN),h,11/10.9691/2019,77.5281,25.2479,24.4021,1.000117,3.124766,2000,6.0,4.0
# From MPC114603
C/2018 O1 (ATLAS),e,154.0400,87.6406,162.5701,27.88391,0.0066938,0.94404862,5.4985,11/30.0/2020,2000,g 17.0,4.0
# From MPC114603
P/2018 P3 (PANSTARRS),e,8.9087,59.1877,305.8710,3.006391,0.1890758,0.41639805,147.9126,11/30.0/2020,2000,g 14.5,4.0
# From MPC114603
P/2018 P4 (PANSTARRS),e,23.1068,353.0788,8.2051,6.670727,0.0572064,0.45034476,43.0846,11/30.0/2020,2000,g 12.0,4.0
# From MPC118094
C/2018 P5 (PANSTARRS),e,7.2534,216.2429,131.7126,12.79321,0.0215395,0.64222050,13.8298,11/30.0/2020,2000,g 11.0,4.0
# From MPC118841
C/2018 R3 (Lemmon),e,69.7267,324.6362,112.8414,1703,0.0000140,0.99924259,0.0000,06/07.2161/2019,2000,g  9.5,4.0
# From MPC112393
C/2018 R4 (Fuls),e,11.6836,298.4361,345.2685,327.9138,0.0001660,0.99477543,0.0000,03/03.6587/2018,2000,g 14.0,4.0
# From MPC114603
C/2018 R5 (Lemmon),e,103.7482,171.1315,178.0443,22.78517,0.0090620,0.84100330,6.2528,11/30.0/2020,2000,g 11.5,4.0
# From MPEC 2020-UR0
C/2018 U1 (Lemmon),h,11/02.8136/2021,108.2997,75.4786,180.4262,1.001041,4.993620,2000,5.0,4.0
# From MPC114604
C/2018 V1 (Machholz-Fujikawa-Iwamoto),h,12/03.3496/2018,144.0537,128.8788,88.8374,1.000363,0.385993,2000,12.0,4.0
# From MPC115884
C/2018 V2 (ATLAS),e,159.1650,357.0604,318.9576,25.23111,0.0077768,0.90177298,5.7120,11/30.0/2020,2000,g 15.0,4.0
# From MPC114604
P/2018 VN2 (Leonard),e,18.2481,226.5195,138.7354,4.064794,0.1202669,0.47839719,109.2514,11/30.0/2020,2000,g 15.0,4.0
# From MPC117070
A/2018 V3,e,164.9780,308.6566,3.5116,121.3423,0.0007374,0.98895668,0.0000,09/08.6781/2019,2000,g 15.7,2.0
# From MPC114604
C/2018 V4 (Africano),e,69.0030,78.3694,359.9513,207.0592,0.0003308,0.98455705,0.0000,03/01.4492/2019,2000,g 12.5,4.0
# From MPC114604
P/2018 V5 (Trujillo-Sheppard),e,10.5844,171.2911,260.7085,8.954530,0.0367824,0.47457311,29.0259,11/30.0/2020,2000,g 12.5,4.0
# From MPC115884
C/2018 W1 (Catalina),e,83.2614,233.5922,251.2512,21.72779,0.0097315,0.93737978,5.5299,11/30.0/2020,2000,g 15.7,2.0
# From MPC119996
C/2018 W2 (Africano),h,09/05.6725/2019,116.6169,181.8531,157.9751,1.000475,1.454928,2000,9.5,4.0
# From MPC119996
C/2018 X2 (Fitzsimmons),e,23.0694,340.8268,162.0606,148.6011,0.0005441,0.98568997,0.0000,07/08.4653/2019,2000,g 12.0,4.0
# From MPC114604
C/2018 X3 (PANSTARRS),e,43.3702,78.9112,359.7655,12.38151,0.0226227,0.78218270,15.8454,11/30.0/2020,2000,g 14.5,4.0
# From MPC118842
C/2018 Y1 (Iwamoto),e,160.4003,147.5092,358.0298,141.7738,0.0005839,0.99093326,0.0000,02/07.0216/2019,2000,g 11.5,4.0
# From MPC114605
